{"fetched_at":"2026-03-30T13:17:50Z","count":15418,"tles":[{"name":"STARLINK-11385 [DTC]","line1":"1 62014U 24213G   26087.85902145  .00317602  00000+0  25287-2 0  9996","line2":"2 62014  53.1574 306.9327 0001031  47.4901 312.6204 15.69696561 77927","category":"Starlink"}]}