{
  "norad_id": 62014,
  "name": "STARLINK-11385 [DTC]",
  "history": [
    {
      "epoch": "2026-03-28T20:36:59.453280Z",
      "apogee_km": 360.4604247178004,
      "perigee_km": 359.0699912181635,
      "latitude_deg": 1.0838622281430744e-05,
      "longitude_deg": 171.411559988063,
      "height_km": 360.20926311442395,
      "semi_major_axis_km": 6737.902207967982,
      "eccentricity": 0.00010318,
      "inclination_deg": 53.1574,
      "raan_deg": 306.9327,
      "arg_perigee_deg": 47.4901,
      "mean_anomaly_deg": 312.6204,
      "mean_motion_rev_day": 15.69696561
    }
  ]
}